CCSDS_OMM_VERS = 2.0
CREATION_DATE  = 
ORIGINATOR     = 

OBJECT_NAME    = H-2A R/B
OBJECT_ID      = 2006-002B
CENTER_NAME    = EARTH
REF_FRAME      = TEME
TIME_SYSTEM    = UTC
MEAN_ELEMENT_THEORY = SGP/SGP4

EPOCH          = 2026-03-08T22:47:00.644064
MEAN_MOTION    = 15.16402873
ECCENTRICITY   = .00519623
INCLINATION    = 98.2411
RA_OF_ASC_NODE = 214.9087
ARG_OF_PERICENTER = 243.5972
MEAN_ANOMALY   = 115.9920

EPHEMERIS_TYPE = 0
CLASSIFICATION_TYPE = U
NORAD_CAT_ID   = 28932
ELEMENT_SET_NO = 999
REV_AT_EPOCH   = 9432
BSTAR          = .69490276E-3
MEAN_MOTION_DOT = .13908E-3
MEAN_MOTION_DDOT = 0

CCSDS_OMM_VERS = 2.0
CREATION_DATE  = 
ORIGINATOR     = 

OBJECT_NAME    = RESURS-DK 1
OBJECT_ID      = 2006-021A
CENTER_NAME    = EARTH
REF_FRAME      = TEME
TIME_SYSTEM    = UTC
MEAN_ELEMENT_THEORY = SGP/SGP4

EPOCH          = 2026-03-08T20:58:53.488416
MEAN_MOTION    = 15.12737697
ECCENTRICITY   = .00019598
INCLINATION    = 69.9316
RA_OF_ASC_NODE = 239.1324
ARG_OF_PERICENTER = 163.3038
MEAN_ANOMALY   = 196.8193

EPHEMERIS_TYPE = 0
CLASSIFICATION_TYPE = U
NORAD_CAT_ID   = 29228
ELEMENT_SET_NO = 999
REV_AT_EPOCH   = 8740
BSTAR          = .25840086E-3
MEAN_MOTION_DOT = .4434E-4
MEAN_MOTION_DDOT = 0

CCSDS_OMM_VERS = 2.0
CREATION_DATE  = 
ORIGINATOR     = 

OBJECT_NAME    = CZ-4B R/B
OBJECT_ID      = 2006-046C
CENTER_NAME    = EARTH
REF_FRAME      = TEME
TIME_SYSTEM    = UTC
MEAN_ELEMENT_THEORY = SGP/SGP4

EPOCH          = 2026-03-08T16:27:23.865696
MEAN_MOTION    = 15.16893012
ECCENTRICITY   = .00316694
INCLINATION    = 97.5593
RA_OF_ASC_NODE = 112.5971
ARG_OF_PERICENTER = 271.0169
MEAN_ANOMALY   = 88.7436

EPHEMERIS_TYPE = 0
CLASSIFICATION_TYPE = U
NORAD_CAT_ID   = 29507
ELEMENT_SET_NO = 999
REV_AT_EPOCH   = 5989
BSTAR          = .34602048E-3
MEAN_MOTION_DOT = .6835E-4
MEAN_MOTION_DDOT = 0

CCSDS_OMM_VERS = 2.0
CREATION_DATE  = 
ORIGINATOR     = 

OBJECT_NAME    = CZ-2C R/B
OBJECT_ID      = 2007-010B
CENTER_NAME    = EARTH
REF_FRAME      = TEME
TIME_SYSTEM    = UTC
MEAN_ELEMENT_THEORY = SGP/SGP4

EPOCH          = 2026-03-08T22:49:21.171072
MEAN_MOTION    = 14.20245867
ECCENTRICITY   = .00579309
INCLINATION    = 98.3979
RA_OF_ASC_NODE = 181.2667
ARG_OF_PERICENTER = 296.7881
MEAN_ANOMALY   = 62.7378

EPHEMERIS_TYPE = 0
CLASSIFICATION_TYPE = U
NORAD_CAT_ID   = 31114
ELEMENT_SET_NO = 999
REV_AT_EPOCH   = 97961
BSTAR          = .95986291E-4
MEAN_MOTION_DOT = .167E-5
MEAN_MOTION_DDOT = 0

CCSDS_OMM_VERS = 2.0
CREATION_DATE  = 
ORIGINATOR     = 

OBJECT_NAME    = COSMO-SKYMED 1
OBJECT_ID      = 2007-023A
CENTER_NAME    = EARTH
REF_FRAME      = TEME
TIME_SYSTEM    = UTC
MEAN_ELEMENT_THEORY = SGP/SGP4

EPOCH          = 2026-03-08T22:17:44.500128
MEAN_MOTION    = 14.96528628
ECCENTRICITY   = .00011684
INCLINATION    = 97.8870
RA_OF_ASC_NODE = 258.9546
ARG_OF_PERICENTER = 100.5461
MEAN_ANOMALY   = 259.5892

EPHEMERIS_TYPE = 0
CLASSIFICATION_TYPE = U
NORAD_CAT_ID   = 31598
ELEMENT_SET_NO = 999
REV_AT_EPOCH   = 1479
BSTAR          = .46489745E-3
MEAN_MOTION_DOT = .5227E-4
MEAN_MOTION_DDOT = 0

CCSDS_OMM_VERS = 2.0
CREATION_DATE  = 
ORIGINATOR     = 

OBJECT_NAME    = COSMOS 2428
OBJECT_ID      = 2007-029A
CENTER_NAME    = EARTH
REF_FRAME      = TEME
TIME_SYSTEM    = UTC
MEAN_ELEMENT_THEORY = SGP/SGP4

EPOCH          = 2026-03-08T19:50:33.012672
MEAN_MOTION    = 14.12945926
ECCENTRICITY   = .00090894
INCLINATION    = 70.9431
RA_OF_ASC_NODE = 205.1539
ARG_OF_PERICENTER = 277.9391
MEAN_ANOMALY   = 82.0698

EPHEMERIS_TYPE = 0
CLASSIFICATION_TYPE = U
NORAD_CAT_ID   = 31792
ELEMENT_SET_NO = 999
REV_AT_EPOCH   = 96397
BSTAR          = .63698934E-4
MEAN_MOTION_DOT = .71E-6
MEAN_MOTION_DDOT = 0

CCSDS_OMM_VERS = 2.0
CREATION_DATE  = 
ORIGINATOR     = 

OBJECT_NAME    = SL-16 R/B
OBJECT_ID      = 2007-029B
CENTER_NAME    = EARTH
REF_FRAME      = TEME
TIME_SYSTEM    = UTC
MEAN_ELEMENT_THEORY = SGP/SGP4

EPOCH          = 2026-03-08T17:23:13.510752
MEAN_MOTION    = 14.14833259
ECCENTRICITY   = .00023176
INCLINATION    = 70.9759
RA_OF_ASC_NODE = 174.4136
ARG_OF_PERICENTER = 276.4060
MEAN_ANOMALY   = 191.5066

EPHEMERIS_TYPE = 0
CLASSIFICATION_TYPE = U
NORAD_CAT_ID   = 31793
ELEMENT_SET_NO = 999
REV_AT_EPOCH   = 96523
BSTAR          = .31990246E-4
MEAN_MOTION_DOT = .14E-6
MEAN_MOTION_DDOT = 0

CCSDS_OMM_VERS = 2.0
CREATION_DATE  = 
ORIGINATOR     = 

OBJECT_NAME    = KORONAS-FOTON
OBJECT_ID      = 2009-003A
CENTER_NAME    = EARTH
REF_FRAME      = TEME
TIME_SYSTEM    = UTC
MEAN_ELEMENT_THEORY = SGP/SGP4

EPOCH          = 2026-03-08T15:53:21.472512
MEAN_MOTION    = 15.43301564
ECCENTRICITY   = .00112609
INCLINATION    = 82.4273
RA_OF_ASC_NODE = 276.9464
ARG_OF_PERICENTER = 152.8275
MEAN_ANOMALY   = 207.3564

EPHEMERIS_TYPE = 0
CLASSIFICATION_TYPE = U
NORAD_CAT_ID   = 33504
ELEMENT_SET_NO = 999
REV_AT_EPOCH   = 94558
BSTAR          = .37366555E-3
MEAN_MOTION_DOT = .16717E-3
MEAN_MOTION_DDOT = 0

CCSDS_OMM_VERS = 2.0
CREATION_DATE  = 
ORIGINATOR     = 

OBJECT_NAME    = CZ-2C R/B
OBJECT_ID      = 2011-030B
CENTER_NAME    = EARTH
REF_FRAME      = TEME
TIME_SYSTEM    = UTC
MEAN_ELEMENT_THEORY = SGP/SGP4

EPOCH          = 2026-03-08T20:49:07.109760
MEAN_MOTION    = 14.81219094
ECCENTRICITY   = .00524853
INCLINATION    = 97.8549
RA_OF_ASC_NODE = 25.1471
ARG_OF_PERICENTER = 354.7594
MEAN_ANOMALY   = 58.9459

EPHEMERIS_TYPE = 0
CLASSIFICATION_TYPE = U
NORAD_CAT_ID   = 37731
ELEMENT_SET_NO = 999
REV_AT_EPOCH   = 78997
BSTAR          = .29528301E-3
MEAN_MOTION_DOT = .2299E-4
MEAN_MOTION_DDOT = 0

CCSDS_OMM_VERS = 2.0
CREATION_DATE  = 
ORIGINATOR     = 

OBJECT_NAME    = H-2A R/B
OBJECT_ID      = 2012-025E
CENTER_NAME    = EARTH
REF_FRAME      = TEME
TIME_SYSTEM    = UTC
MEAN_ELEMENT_THEORY = SGP/SGP4

EPOCH          = 2026-03-08T20:36:22.901760
MEAN_MOTION    = 14.95162338
ECCENTRICITY   = .00433758
INCLINATION    = 98.4742
RA_OF_ASC_NODE = 34.8384
ARG_OF_PERICENTER = 317.2692
MEAN_ANOMALY   = 42.5156

EPHEMERIS_TYPE = 0
CLASSIFICATION_TYPE = U
NORAD_CAT_ID   = 38341
ELEMENT_SET_NO = 999
REV_AT_EPOCH   = 74809
BSTAR          = .52866597E-3
MEAN_MOTION_DOT = .5846E-4
MEAN_MOTION_DDOT = 0

CCSDS_OMM_VERS = 2.0
CREATION_DATE  = 
ORIGINATOR     = 

OBJECT_NAME    = SHIJIAN-16 (SJ-16)
OBJECT_ID      = 2013-057A
CENTER_NAME    = EARTH
REF_FRAME      = TEME
TIME_SYSTEM    = UTC
MEAN_ELEMENT_THEORY = SGP/SGP4

EPOCH          = 2026-03-08T23:00:27.277920
MEAN_MOTION    = 14.92342197
ECCENTRICITY   = .00154712
INCLINATION    = 74.9735
RA_OF_ASC_NODE = 186.4709
ARG_OF_PERICENTER = 114.4954
MEAN_ANOMALY   = 245.7849

EPHEMERIS_TYPE = 0
CLASSIFICATION_TYPE = U
NORAD_CAT_ID   = 39358
ELEMENT_SET_NO = 999
REV_AT_EPOCH   = 67139
BSTAR          = .16865963E-3
MEAN_MOTION_DOT = .1699E-4
MEAN_MOTION_DDOT = 0

CCSDS_OMM_VERS = 2.0
CREATION_DATE  = 
ORIGINATOR     = 

OBJECT_NAME    = SL-4 R/B
OBJECT_ID      = 2014-021B
CENTER_NAME    = EARTH
REF_FRAME      = TEME
TIME_SYSTEM    = UTC
MEAN_ELEMENT_THEORY = SGP/SGP4

EPOCH          = 2026-03-08T21:57:13.895424
MEAN_MOTION    = 15.39151766
ECCENTRICITY   = .00976178
INCLINATION    = 51.6074
RA_OF_ASC_NODE = 341.0593
ARG_OF_PERICENTER = 100.2042
MEAN_ANOMALY   = 260.9968

EPHEMERIS_TYPE = 0
CLASSIFICATION_TYPE = U
NORAD_CAT_ID   = 39679
ELEMENT_SET_NO = 999
REV_AT_EPOCH   = 65615
BSTAR          = .42012505E-3
MEAN_MOTION_DOT = .19164E-3
MEAN_MOTION_DDOT = 0

